NORAD_CAT_ID,OBJECT_NAME,OBJECT_TYPE,EPOCH,MEAN_MOTION,ECCENTRICITY,INCLINATION,RA_OF_ASC_NODE,ARG_OF_PERICENTER,MEAN_ANOMALY,BSTAR,MEAN_MOTION_DOT,MEAN_MOTION_DDOT,TLE_LINE0,TLE_LINE1,TLE_LINE2,SEMIMAJOR_AXIS,PERIOD,APOGEE,PERIGEE,DECAYED
55278.0,STARLINK-5289,PAYLOAD,2024-06-21 10:54:34,14.98328967,0.0003373,69.9987,183.3455,269.1205,90.9568,9.7183e-05,1.067e-05,0.0,0 STARLINK-5289,1 55278U 23010K   24173.45456690  .00001067  00000-0  97183-4 0  9995,2 55278  69.9987 183.3455 0003373 269.1205  90.9568 14.98328967 78679,6950.196,96.107,574.405,569.717,0.0
55278.0,STARLINK-5289,PAYLOAD,2024-06-22 10:56:35,14.98335025,0.0003358,69.999,180.8209,268.951,91.1264,0.00010175,1.121e-05,0.0,0 STARLINK-5289,1 55278U 23010K   24174.45596197  .00001121  00000-0  10175-3 0  9999,2 55278  69.9990 180.8209 0003358 268.9510  91.1264 14.98335025 78827,6950.177,96.107,574.376,569.708,0.0
55278.0,STARLINK-5289,PAYLOAD,2024-06-23 10:58:35,14.98341063,0.0003395,69.9992,178.2961,269.6071,90.4698,0.00010338,1.141e-05,0.0,0 STARLINK-5289,1 55278U 23010K   24175.45735311  .00001141  00000-0  10338-3 0  9996,2 55278  69.9992 178.2961 0003395 269.6071  90.4698 14.98341063 78974,6950.159,96.106,574.383,569.664,0.0
55278.0,STARLINK-5289,PAYLOAD,2024-06-24 04:36:04,14.98337024,0.0003281,69.9994,176.4446,266.9681,93.1102,1.5679e-05,9.4e-07,0.0,0 STARLINK-5289,1 55278U 23010K   24176.19171358  .00000094  00000-0  15679-4 0  9993,2 55278  69.9994 176.4446 0003281 266.9681  93.1102 14.98337024 79080,6950.171,96.107,574.317,569.756,0.0
55278.0,STARLINK-5289,PAYLOAD,2024-06-24 09:24:28,14.98336939,0.0003308,69.9993,175.9395,267.7476,92.3304,1.0324e-05,3e-07,0.0,0 STARLINK-5289,1 55278U 23010K   24176.39199275  .00000030  00000-0  10324-4 0  9995,2 55278  69.9993 175.9395 0003308 267.7476  92.3304 14.98336939 79413,6950.171,96.107,574.336,569.737,0.0
55278.0,STARLINK-5289,PAYLOAD,2024-06-25 04:38:04,14.98334011,0.000323,69.9994,173.9197,266.8818,93.1971,-4.5497e-05,-6.36e-06,0.0,0 STARLINK-5289,1 55278U 23010K   24177.19311294 -.00000636  00000-0 -45497-4 0  9994,2 55278  69.9994 173.9197 0003230 266.8818  93.1971 14.98334011 79234,6950.18,96.107,574.29,569.801,0.0
55278.0,STARLINK-5289,PAYLOAD,2024-06-25 09:26:29,14.9833337,0.0003235,69.9995,173.4149,267.0945,92.9844,-5.1368e-05,-7.06e-06,0.0,0 STARLINK-5289,1 55278U 23010K   24177.39339298 -.00000706  00000-0 -51368-4 0  9992,2 55278  69.9995 173.4149 0003235 267.0945  92.9844 14.98333370 79565,6950.182,96.107,574.296,569.799,0.0
55278.0,STARLINK-5289,PAYLOAD,2024-06-26 04:40:05,14.98332688,0.0003283,69.9993,171.3954,267.6701,92.4082,1.69e-05,1.09e-06,0.0,0 STARLINK-5289,1 55278U 23010K   24178.19451020  .00000109  00000-0  16900-4 0  9997,2 55278  69.9993 171.3954 0003283 267.6701  92.4082 14.98332688 79383,6950.185,96.107,574.331,569.768,0.0
55278.0,STARLINK-5289,PAYLOAD,2024-06-26 09:28:29,14.9833395,0.0003273,69.9993,170.8904,267.5978,92.4806,3.1692e-05,2.85e-06,0.0,0 STARLINK-5289,1 55278U 23010K   24178.39478865  .00000285  00000-0  31692-4 0  9995,2 55278  69.9993 170.8904 0003273 267.5978  92.4806 14.98333950 79710,6950.181,96.107,574.32,569.771,0.0
55278.0,STARLINK-5289,PAYLOAD,2024-06-27 04:42:06,14.98333045,0.0003268,69.9994,168.8709,264.8475,95.2311,7.4857e-05,8e-06,0.0,0 STARLINK-5289,1 55278U 23010K   24179.19590701  .00000800  00000-0  74857-4 0  9991,2 55278  69.9994 168.8709 0003268 264.8475  95.2311 14.98333045 79534,6950.183,96.107,574.32,569.777,0.0
55278.0,STARLINK-5289,PAYLOAD,2024-06-27 09:30:30,14.98334965,0.0003224,69.9995,168.3659,265.6993,94.3798,9.8569e-05,1.083e-05,0.0,0 STARLINK-5289,1 55278U 23010K   24179.39618493  .00001083  00000-0  98569-4 0  9992,2 55278  69.9995 168.3659 0003224 265.6993  94.3798 14.98334965 79867,6950.178,96.107,574.283,569.802,0.0
55278.0,STARLINK-5289,PAYLOAD,2024-06-28 04:44:07,14.98330797,0.0003092,69.9998,166.3468,263.352,96.7288,1.9924e-05,1.45e-06,0.0,0 STARLINK-5289,1 55278U 23010K   24180.19730915  .00000145  00000-0  19924-4 0  9992,2 55278  69.9998 166.3468 0003092 263.3520  96.7288 14.98330797 79689,6950.19,96.107,574.204,569.906,0.0
55278.0,STARLINK-5289,PAYLOAD,2024-06-28 07:56:23,14.9833155,0.0003086,69.9998,166.0101,263.707,96.3738,2.7398e-05,2.34e-06,0.0,0 STARLINK-5289,1 55278U 23010K   24180.33082838  .00000234  00000-0  27398-4 0  9995,2 55278  69.9998 166.0101 0003086 263.7070  96.3738 14.98331550 80009,6950.188,96.107,574.198,569.908,0.0
55278.0,STARLINK-5289,PAYLOAD,2024-06-29 04:46:08,14.98333447,0.0003066,69.9998,163.8213,266.9551,93.1258,1.8537e-05,1.28e-06,0.0,0 STARLINK-5289,1 55278U 23010K   24181.19870678  .00000128  00000-0  18537-4 0  9994,2 55278  69.9998 163.8213 0003066 266.9551  93.1258 14.98333447 79833,6950.182,96.107,574.178,569.916,0.0
55278.0,STARLINK-5289,PAYLOAD,2024-06-29 09:34:32,14.9833533,0.0003049,69.9998,163.3161,268.3128,91.7682,3.9834e-05,3.82e-06,0.0,0 STARLINK-5289,1 55278U 23010K   24181.39898463  .00000382  00000-0  39834-4 0  9993,2 55278  69.9998 163.3161 0003049 268.3128  91.7682 14.98335330 80163,6950.176,96.107,574.161,569.922,0.0
55278.0,STARLINK-5289,PAYLOAD,2024-06-29 15:59:04,14.98329987,0.0003026,69.9999,162.6428,268.8214,91.2598,8.9427e-06,1.4e-07,0.0,0 STARLINK-5289,1 55278U 23010K   24181.66602866  .00000014  00000-0  89427-5 0  9999,2 55278  69.9999 162.6428 0003026 268.8214  91.2598 14.98329987 80205,6950.193,96.107,574.161,569.955,0.0
55278.0,STARLINK-5289,PAYLOAD,2024-06-30 04:48:09,14.98322874,0.0002904,70.0001,161.2969,268.2378,91.8448,-1.0559e-05,-2.19e-06,0.0,0 STARLINK-5289,1 55278U 23010K   24182.20011526 -.00000219  00000-0 -10559-4 0  9995,2 55278  70.0001 161.2969 0002904 268.2378  91.8448 14.98322874 79987,6950.215,96.107,574.098,570.062,0.0
55278.0,STARLINK-5289,PAYLOAD,2024-06-30 08:00:26,14.98323388,0.0002897,70.0002,160.9603,268.392,91.6907,-5.1019e-06,-1.54e-06,0.0,0 STARLINK-5289,1 55278U 23010K   24182.33363533 -.00000154  00000-0 -51019-5 0  9992,2 55278  70.0002 160.9603 0002897 268.3920  91.6907 14.98323388 80301,6950.213,96.107,574.092,570.065,0.0
55278.0,STARLINK-5289,PAYLOAD,2024-06-30 16:01:06,14.9832917,0.000298,69.9999,160.1186,269.1656,90.9162,3.4809e-05,3.22e-06,0.0,0 STARLINK-5289,1 55278U 23010K   24182.66743136  .00000322  00000-0  34809-4 0  9991,2 55278  69.9999 160.1186 0002980 269.1656  90.9162 14.98329170 80051,6950.195,96.107,574.132,569.989,0.0
55278.0,STARLINK-5289,PAYLOAD,2024-07-01 04:50:10,14.98336028,0.0003017,69.9997,158.7719,268.6276,91.4537,8.7287e-05,9.49e-06,0.0,0 STARLINK-5289,1 55278U 23010K   24183.20150514  .00000949  00000-0  87287-4 0  9997,2 55278  69.9997 158.7719 0003017 268.6276  91.4537 14.98336028 80139,6950.174,96.107,574.136,569.942,0.0
55278.0,STARLINK-5289,PAYLOAD,2024-07-01 08:02:26,14.98337294,0.0003005,69.9998,158.4353,268.7362,91.3453,0.00010017,1.103e-05,0.0,0 STARLINK-5289,1 55278U 23010K   24183.33502367  .00001103  00000-0  10017-3 0  9997,2 55278  69.9998 158.4353 0003005 268.7362  91.3453 14.98337294 80452,6950.17,96.107,574.124,569.947,0.0
55278.0,STARLINK-5289,PAYLOAD,2024-07-01 22:27:39,14.98324899,0.0003017,69.9995,156.9199,268.4079,91.6734,0.00010095,1.112e-05,0.0,0 STARLINK-5289,1 55278U 23010K   24183.93587092  .00001112  00000-0  10095-3 0  9997,2 55278  69.9995 156.9199 0003017 268.4079  91.6734 14.98324899 80547,6950.209,96.107,574.171,569.977,0.0
55278.0,STARLINK-5289,PAYLOAD,2024-07-02 04:52:11,14.98327107,0.0003028,69.9996,156.2473,269.1472,90.934,8.6489e-05,9.39e-06,0.0,0 STARLINK-5289,1 55278U 23010K   24184.20291086  .00000939  00000-0  86489-4 0  9990,2 55278  69.9996 156.2473 0003028 269.1472  90.9340 14.98327107 80284,6950.202,96.107,574.171,569.962,0.0
55278.0,STARLINK-5289,PAYLOAD,2024-07-02 08:04:27,14.98328541,0.0003019,69.9997,155.9107,269.1446,90.9368,9.8629e-05,1.084e-05,0.0,0 STARLINK-5289,1 55278U 23010K   24184.33642986  .00001084  00000-0  98629-4 0  9994,2 55278  69.9997 155.9107 0003019 269.1446  90.9368 14.98328541 80605,6950.197,96.107,574.161,569.964,0.0
55278.0,STARLINK-5289,PAYLOAD,2024-07-02 22:29:40,14.98332615,0.0003003,69.9998,154.3956,269.2686,90.8129,3.1241e-06,-5.6e-07,0.0,0 STARLINK-5289,1 55278U 23010K   24184.93726935 -.00000056  00000-0  31241-5 0  9994,2 55278  69.9998 154.3956 0003003 269.2686  90.8129 14.98332615 80691,6950.185,96.107,574.137,569.963,0.0
55278.0,STARLINK-5289,PAYLOAD,2024-07-03 04:54:12,14.98333541,0.0003001,69.9998,153.7223,269.5218,90.5598,8.8917e-06,1.3e-07,0.0,0 STARLINK-5289,1 55278U 23010K   24185.20430781  .00000013  00000-0  88917-5 0  9990,2 55278  69.9998 153.7223 0003001 269.5218  90.5598 14.98333541 80431,6950.182,96.107,574.133,569.961,0.0
55278.0,STARLINK-5289,PAYLOAD,2024-07-03 22:31:40,14.98329465,0.0002923,70.0001,151.8705,270.708,89.3744,4.6494e-05,4.62e-06,0.0,0 STARLINK-5289,1 55278U 23010K   24185.93866784  .00000462  00000-0  46494-4 0  9997,2 55278  70.0001 151.8705 0002923 270.7080  89.3744 14.98329465 80840,6950.195,96.107,574.091,570.028,0.0
55278.0,STARLINK-5289,PAYLOAD,2024-07-04 04:56:12,14.98331713,0.0002888,70.0002,151.1981,269.2463,90.8365,5.8214e-05,6.02e-06,0.0,0 STARLINK-5289,1 55278U 23010K   24186.20570590  .00000602  00000-0  58214-4 0  9994,2 55278  70.0002 151.1981 0002888 269.2463  90.8365 14.98331713 80584,6950.188,96.107,574.06,570.045,0.0
55278.0,STARLINK-5289,PAYLOAD,2024-07-04 14:33:01,14.98330429,0.0002859,70.0003,150.1877,270.2663,89.8168,3.1175e-05,2.79e-06,0.0,0 STARLINK-5289,1 55278U 23010K   24186.60626673  .00000279  00000-0  31175-4 0  9999,2 55278  70.0003 150.1877 0002859 270.2663  89.8168 14.98330429 80942,6950.192,96.107,574.044,570.07,0.0
55278.0,STARLINK-5289,PAYLOAD,2024-07-04 22:33:41,14.98331773,0.000277,70.0004,149.3462,267.5076,92.5766,3.1693e-05,2.85e-06,0.0,0 STARLINK-5289,1 55278U 23010K   24186.94006563  .00000285  00000-0  31693-4 0  9998,2 55278  70.0004 149.3462 0002770 267.5076  92.5766 14.98331773 80995,6950.187,96.107,573.978,570.127,0.0
